[{"OBJECT_NAME":"HAWK-12A","OBJECT_ID":"2025-138C","EPOCH":"2026-03-09T22:54:48.597696","MEAN_MOTION":15.17349329,"ECCENTRICITY":0.00159877,"INCLINATION":97.4429,"RA_OF_ASC_NODE":73.3872,"ARG_OF_PERICENTER":120.0729,"MEAN_ANOMALY":240.2092,"EPHEMERIS_TYPE":0,"CLASSIFICATION_TYPE":"U","NORAD_CAT_ID":64623,"ELEMENT_SET_NO":999,"REV_AT_EPOCH":3881,"BSTAR":0.00032645128,"MEAN_MOTION_DOT":6.47e-5,"MEAN_MOTION_DDOT":0},{"OBJECT_NAME":"SHIJIAN-30A (SJ-30A)","OBJECT_ID":"2025-266A","EPOCH":"2026-03-09T22:15:16.108992","MEAN_MOTION":15.15342199,"ECCENTRICITY":0.00113033,"INCLINATION":51.7972,"RA_OF_ASC_NODE":284.3677,"ARG_OF_PERICENTER":291.808,"MEAN_ANOMALY":68.1693,"EPHEMERIS_TYPE":0,"CLASSIFICATION_TYPE":"U","NORAD_CAT_ID":66545,"ELEMENT_SET_NO":999,"REV_AT_EPOCH":1680,"BSTAR":0.00051940463,"MEAN_MOTION_DOT":9.633e-5,"MEAN_MOTION_DDOT":0}]
